NORAD_CAT_ID,OBJECT_NAME,OBJECT_TYPE,EPOCH,MEAN_MOTION,ECCENTRICITY,INCLINATION,RA_OF_ASC_NODE,ARG_OF_PERICENTER,MEAN_ANOMALY,BSTAR,MEAN_MOTION_DOT,MEAN_MOTION_DDOT,TLE_LINE0,TLE_LINE1,TLE_LINE2,SEMIMAJOR_AXIS,PERIOD,APOGEE,PERIGEE,DECAYED
51715.0,STARLINK-3533,PAYLOAD,2024-05-08 04:31:32,15.08838393,0.0001469,53.2179,99.1256,90.677,269.439,-0.00013693,-2.466e-05,0.0,0 STARLINK-3533,1 51715U 22016B   24129.18856533 -.00002466  00000-0 -13693-3 0  9992,2 51715  53.2179  99.1256 0001469  90.6770 269.4390 15.08838393123332,6917.885,95.438,540.767,538.734,0.0
51715.0,STARLINK-3533,PAYLOAD,2024-05-08 22:00:45,15.08842535,0.0001371,53.218,95.8544,91.3856,268.7293,4.8321e-05,4.81e-06,0.0,0 STARLINK-3533,1 51715U 22016B   24129.91719560  .00000481  00000-0  48321-4 0  9991,2 51715  53.2180  95.8544 0001371  91.3856 268.7293 15.08842535123441,6917.873,95.437,540.686,538.789,0.0
51715.0,STARLINK-3533,PAYLOAD,2024-05-09 04:22:17,15.08855611,0.0001477,53.2183,94.6659,91.154,268.9621,5.7339e-05,6.25e-06,0.0,0 STARLINK-3533,1 51715U 22016B   24130.18214860  .00000625  00000-0  57339-4 0  9994,2 51715  53.2183  94.6659 0001477  91.1540 268.9621 15.08855611123483,6917.833,95.437,540.719,538.676,0.0
51715.0,STARLINK-3533,PAYLOAD,2024-05-10 02:37:43,15.08831187,0.0001354,53.2175,90.5023,83.9072,276.2074,0.00013986,1.938e-05,0.0,0 STARLINK-3533,1 51715U 22016B   24131.10952702  .00001938  00000-0  13986-3 0  9998,2 51715  53.2175  90.5023 0001354  83.9072 276.2074 15.08831187123629,6917.907,95.438,540.709,538.836,0.0
51715.0,STARLINK-3533,PAYLOAD,2024-05-10 13:45:24,15.0883979,0.0001341,53.2177,88.4197,83.0814,277.033,0.0001296,1.775e-05,0.0,0 STARLINK-3533,1 51715U 22016B   24131.57320437  .00001775  00000-0  12960-3 0  9993,2 51715  53.2177  88.4197 0001341  83.0814 277.0330 15.08839790123699,6917.881,95.438,540.674,538.818,0.0
51715.0,STARLINK-3533,PAYLOAD,2024-05-10 21:42:20,15.08843229,0.0001443,53.2183,86.9336,93.1923,266.9235,9.627e-06,-1.35e-06,0.0,0 STARLINK-3533,1 51715U 22016B   24131.90440545 -.00000135  00000-0  96270-5 0  9991,2 51715  53.2183  86.9336 0001443  93.1923 266.9235 15.08843229123749,6917.871,95.437,540.734,538.737,0.0
51715.0,STARLINK-3533,PAYLOAD,2024-05-11 02:28:28,15.08872005,0.000198,53.2196,86.0442,118.8381,241.281,0.00027278,4.06e-05,0.0,0 STARLINK-3533,1 51715U 22016B   24132.10310493  .00004060  00000-0  27278-3 0  9992,2 51715  53.2196  86.0442 0001980 118.8381 241.2810 15.08872005123773,6917.783,95.436,541.017,538.278,0.0
51715.0,STARLINK-3533,PAYLOAD,2024-05-11 21:33:07,15.08813681,8.31e-05,53.2181,82.4731,109.296,250.8122,-0.00066204,-0.00010801,0.0,0 STARLINK-3533,1 51715U 22016B   24132.89799870 -.00010801  00000-0 -66204-3 0  9992,2 51715  53.2181  82.4731 0000831 109.2960 250.8122 15.08813681123899,6917.961,95.439,540.401,539.251,0.0
51715.0,STARLINK-3533,PAYLOAD,2024-05-12 03:54:42,15.08756796,0.0001179,53.2177,81.2841,91.5006,268.6121,-0.0015575,-0.00024933,0.0,0 STARLINK-3533,1 51715U 22016B   24133.16299328 -.00024933  00000-0 -15575-2 0  9991,2 51715  53.2177  81.2841 0001179  91.5006 268.6121 15.08756796123937,6918.135,95.443,540.815,539.184,0.0
51715.0,STARLINK-3533,PAYLOAD,2024-05-12 13:27:02,15.08769346,0.0001056,53.2176,79.501,133.3145,226.7935,-0.0010401,-0.0001677,0.0,0 STARLINK-3533,1 51715U 22016B   24133.56044119 -.00016770  00000-0 -10401-2 0  9994,2 51715  53.2176  79.5010 0001056 133.3145 226.7935 15.08769346123996,6918.096,95.442,540.692,539.231,0.0
51715.0,STARLINK-3533,PAYLOAD,2024-05-13 05:20:53,15.08818679,0.0001429,53.218,76.5265,108.3393,251.7754,0.00021498,3.133e-05,0.0,0 STARLINK-3533,1 51715U 22016B   24134.22284365  .00003133  00000-0  21498-3 0  9993,2 51715  53.2180  76.5265 0001429 108.3393 251.7754 15.08818679124094,6917.946,95.439,540.799,538.822,0.0
51715.0,STARLINK-3533,PAYLOAD,2024-05-13 13:17:49,15.08827154,0.0001466,53.219,75.0409,95.0009,265.115,0.00043658,6.665e-05,0.0,0 STARLINK-3533,1 51715U 22016B   24134.55404610  .00006665  00000-0  43658-3 0  9991,2 51715  53.2190  75.0409 0001466  95.0009 265.1150 15.08827154124149,6917.92,95.438,540.799,538.77,0.0
51715.0,STARLINK-3533,PAYLOAD,2024-05-14 03:36:17,15.08853053,0.0001083,53.217,72.3647,112.0731,248.0377,0.0011622,0.00018263,0.0,0 STARLINK-3533,1 51715U 22016B   24135.15020616  .00018263  00000-0  11622-2 0  9990,2 51715  53.2170  72.3647 0001083 112.0731 248.0377 15.08853053124236,6917.84,95.437,540.455,538.956,0.0
51715.0,STARLINK-3533,PAYLOAD,2024-05-14 13:08:35,15.08875673,0.0001047,53.2167,70.5801,112.4519,247.6585,0.00079794,0.00012446,0.0,0 STARLINK-3533,1 51715U 22016B   24135.54763278  .00012446  00000-0  79794-3 0  9993,2 51715  53.2167  70.5801 0001047 112.4519 247.6585 15.08875673124296,6917.771,95.435,540.361,538.912,0.0
51715.0,STARLINK-3533,PAYLOAD,2024-05-15 01:51:38,15.08901847,9.97e-05,53.2164,68.2006,116.111,243.9985,0.0012462,0.00019634,0.0,0 STARLINK-3533,1 51715U 22016B   24136.07753431  .00019634  00000-0  12462-2 0  9996,2 51715  53.2164  68.2006 0000997 116.1110 243.9985 15.08901847124370,6917.691,95.434,540.246,538.867,0.0
51715.0,STARLINK-3533,PAYLOAD,2024-05-15 22:31:39,15.08871403,0.0001146,53.217,64.3342,113.315,246.7962,0.00049588,7.62e-05,0.0,0 STARLINK-3533,1 51715U 22016B   24136.93864624  .00007620  00000-0  49588-3 0  9990,2 51715  53.2170  64.3342 0001146 113.3150 246.7962 15.08871403124502,6917.784,95.436,540.442,538.857,0.0
51715.0,STARLINK-3533,PAYLOAD,2024-05-16 01:42:25,15.08865348,0.0001057,53.2172,63.74,105.4042,254.7066,0.00037013,5.612e-05,0.0,0 STARLINK-3533,1 51715U 22016B   24137.07112565  .00005612  00000-0  37013-3 0  9995,2 51715  53.2172  63.7400 0001057 105.4042 254.7066 15.08865348124522,6917.803,95.436,540.399,538.937,0.0
51715.0,STARLINK-3533,PAYLOAD,2024-05-16 19:11:39,15.08850168,0.0001379,53.2168,60.4681,70.0952,290.0188,0.00038978,5.923e-05,0.0,0 STARLINK-3533,1 51715U 22016B   24137.79976630  .00005923  00000-0  38978-3 0  9991,2 51715  53.2168  60.4681 0001379  70.0952 290.0188 15.08850168124630,6917.849,95.437,540.668,538.76,0.0
51715.0,STARLINK-3533,PAYLOAD,2024-05-17 01:33:11,15.08857049,0.0001031,53.2171,59.2812,112.671,247.4391,0.00066731,0.00010353,0.0,0 STARLINK-3533,1 51715U 22016B   24138.06471875  .00010353  00000-0  66731-3 0  9994,2 51715  53.2171  59.2812 0001031 112.6710 247.4391 15.08857049124677,6917.828,95.436,540.407,538.98,0.0
51715.0,STARLINK-3533,PAYLOAD,2024-05-17 22:13:13,15.08829077,0.0001195,53.2176,55.4166,96.5134,263.5994,-4.2964e-05,-9.71e-06,0.0,0 STARLINK-3533,1 51715U 22016B   24138.92585356 -.00000971  00000-0 -42964-4 0  9999,2 51715  53.2176  55.4166 0001195  96.5134 263.5994 15.08829077124806,6917.914,95.438,540.605,538.952,0.0
51715.0,STARLINK-3533,PAYLOAD,2024-05-18 04:34:46,15.08836721,0.0001065,53.2163,54.2234,90.7288,269.3826,0.00044934,6.87e-05,0.0,0 STARLINK-3533,1 51715U 22016B   24139.19081417  .00006870  00000-0  44934-3 0  9998,2 51715  53.2163  54.2234 0001065  90.7288 269.3826 15.08836721124843,6917.89,95.438,540.492,539.019,0.0
51715.0,STARLINK-3533,PAYLOAD,2024-05-18 10:56:18,15.08847438,0.0001165,53.2172,53.0346,95.4219,264.6906,0.0010387,0.00016285,0.0,0 STARLINK-3533,1 51715U 22016B   24139.45577453  .00016285  00000-0  10387-2 0  9992,2 51715  53.2172  53.0346 0001165  95.4219 264.6906 15.08847438124889,6917.858,95.437,540.529,538.917,0.0
51715.0,STARLINK-3533,PAYLOAD,2024-05-18 22:04:00,15.08865888,0.0001339,53.2176,50.9536,94.9446,265.1699,0.0011143,0.00017503,0.0,0 STARLINK-3533,1 51715U 22016B   24139.91944890  .00017503  00000-0  11143-2 0  9991,2 51715  53.2176  50.9536 0001339  94.9446 265.1699 15.08865888124951,6917.801,95.436,540.593,538.74,0.0
51715.0,STARLINK-3533,PAYLOAD,2024-05-19 02:50:09,15.08886823,0.0001355,53.2186,50.0638,89.8251,270.2896,0.0016239,0.00025684,0.0,0 STARLINK-3533,1 51715U 22016B   24140.11816230  .00025684  00000-0  16239-2 0  9991,2 51715  53.2186  50.0638 0001355  89.8251 270.2896 15.08886823124982,6917.737,95.435,540.54,538.665,0.0
51715.0,STARLINK-3533,PAYLOAD,2024-05-20 02:40:56,15.08842052,0.0001077,53.2173,45.6014,88.0053,272.1063,0.00035037,5.293e-05,0.0,0 STARLINK-3533,1 51715U 22016B   24141.11176891  .00005293  00000-0  35037-3 0  9996,2 51715  53.2173  45.6014 0001077  88.0053 272.1063 15.08842052125139,6917.874,95.437,540.484,538.994,0.0
51715.0,STARLINK-3533,PAYLOAD,2024-05-21 02:31:44,15.08844671,0.0001375,53.2173,41.1405,80.9818,279.1329,0.0018699,0.00029601,0.0,0 STARLINK-3533,1 51715U 22016B   24142.10537917  .00029601  00000-0  18699-2 0  9999,2 51715  53.2173  41.1405 0001375  80.9818 279.1329 15.08844671125282,6917.866,95.437,540.682,538.78,0.0
51715.0,STARLINK-3533,PAYLOAD,2024-05-21 21:36:22,15.08845617,0.000147,53.2171,37.5681,103.9375,256.1781,0.00079403,0.00012373,0.0,0 STARLINK-3533,1 51715U 22016B   24142.90025769  .00012373  00000-0  79403-3 0  9993,2 51715  53.2171  37.5681 0001470 103.9375 256.1781 15.08845617125407,6917.863,95.437,540.745,538.711,0.0
51715.0,STARLINK-3533,PAYLOAD,2024-05-22 02:22:31,15.08854733,0.000146,53.2181,36.6732,119.1183,240.9955,0.00068833,0.00010688,0.0,0 STARLINK-3533,1 51715U 22016B   24143.09897461  .00010688  00000-0  68833-3 0  9992,2 51715  53.2181  36.6732 0001460 119.1183 240.9955 15.08854733125436,6917.835,95.437,540.71,538.69,0.0
51715.0,STARLINK-3533,PAYLOAD,2024-05-22 21:27:09,15.08837051,0.0002391,53.2179,33.1079,133.4098,226.7093,0.00044483,6.798e-05,0.0,0 STARLINK-3533,1 51715U 22016B   24143.89385839  .00006798  00000-0  44483-3 0  9993,2 51715  53.2179  33.1079 0002391 133.4098 226.7093 15.08837051125559,6917.889,95.438,541.408,538.1,0.0
51715.0,STARLINK-3533,PAYLOAD,2024-05-23 02:13:18,15.08843632,0.0001387,53.2184,32.2174,107.9088,252.2056,0.00047646,7.304e-05,0.0,0 STARLINK-3533,1 51715U 22016B   24144.09257961  .00007304  00000-0  47646-3 0  9998,2 51715  53.2184  32.2174 0001387 107.9088 252.2056 15.08843632125588,6917.869,95.437,540.694,538.775,0.0
